GLOBALSTAR M045         
1 25676U 99019A   25007.48755602 -.00000041  00000+0  46760-3 0  9996
2 25676  51.9984  43.2957 0000375 199.5648 308.2490 12.27054943173667
GLOBALSTAR M019         
1 25677U 99019B   25007.53899757 -.00000158  00000+0 -71419-3 0  9992
2 25677  51.9860 162.2092 0001346  59.8911  29.1213 12.13871294165634
GLOBALSTAR M044         
1 25678U 99019C   25007.63469017 -.00000026  00000+0  80083-3 0  9996
2 25678  51.9974  93.2188 0007180  96.4685  52.0982 11.90247967152202
GLOBALSTAR M042         
1 25679U 99019D   25007.60266191 -.00000036  00000+0  53006-3 0  9998
2 25679  51.9999 144.2858 0002094 344.4933 123.5611 12.22076479165629
GLOBALSTAR M025         
1 25770U 99031A   25007.48351362 -.00000047  00000+0  62829-3 0  9990
2 25770  51.9781 171.5518 0001077 177.3491 217.7283 11.22558657463666
GLOBALSTAR M049         
1 25771U 99031B   25007.55028882 -.00000103  00000+0 -13137-2 0  9998
2 25771  51.9835 198.0890 0004679  99.3318 260.8008 11.12111598 99551
GLOBALSTAR M047         
1 25772U 99031C   25007.60591491 -.00000072  00000+0 -62629-4 0  9993
2 25772  51.9798 210.2757 0016229 351.8839   8.1702 11.31925976452929
GLOBALSTAR M052         
1 25773U 99031D   25007.61247036 -.00000071  00000+0 -16345-3 0  9990
2 25773  51.9893 308.8838 0002074 278.5421 252.6706 11.15056369460590
